HELIOS 1B               
1 25977U 99064A   20218.42496013  .00000029  00000-0  10693-4 0  9994
2 25977  98.2869  15.0305 0001746 138.1215 222.0131 14.82487873113678
TERRA                   
1 25994U 99068A   20218.47516806  .00000025  00000-0  15561-4 0  9990
2 25994  98.2114 292.0745 0001309 105.8104 254.3239 14.57112277 97457
SL-16 R/B               
1 26070U 00006B   20218.56480333  .00000056  00000-0  53032-4 0  9994
2 26070  71.0008  70.0542 0015002  44.4155 315.8168 14.15464928 59585
MTI                     
1 26102U 00014A   20218.43437377  .00005438  00000-0  79264-4 0  9999
2 26102  97.4966 103.0522 0008881  54.6791 305.5462 15.56128586132136
TITAN 4B R/B            
1 26474U 00047B   20218.52777711  .00000077  00000-0  17603-4 0  9999
2 26474  67.9944 300.6100 0053204 147.9364 212.5034 14.95974079 86581
ENVISAT                 
1 27386U 02009A   20218.49704406  .00000008  00000-0  15937-4 0  9991
2 27386  98.1364 222.9675 0001412  88.7629  64.5411 14.37987989965590
IDEFIX & ARIANE 42P R/B 
1 27422U 02021B   20218.45905226 -.00000014  00000-0  10832-4 0  9992
2 27422  98.3543 177.5073 0013485  86.0577 274.2147 14.29291744952168
AQUA                    
1 27424U 02022A   20218.59983727  .00000057  00000-0  22708-4 0  9993
2 27424  98.2105 158.5294 0001488 134.1334  57.2387 14.57112948971023
CZ-4B R/B               
1 27432U 02024C   20218.45469390 -.00000038  00000-0  43590-5 0  9997
2 27432  99.0884 221.4801 0051141  39.0639  82.4773 14.14095519940573
MIDORI II (ADEOS-II)    
1 27597U 02056A   20218.46313408  .00000011  00000-0  21908-4 0  9991
2 27597  98.5220 164.8250 0001046 131.4473 228.6798 14.27454694918802
H-2A R/B                
1 27601U 02056E   20218.35895998  .00000044  00000-0  30354-4 0  9995
2 27601  98.2230 251.6084 0073156 131.3815 239.7483 14.31961641921680
CZ-4B R/B               
1 28059U 03049C   20218.50500907  .00000006  00000-0  13168-4 0  9998
2 28059  98.4834 135.5870 0049952 350.1209   9.8999 14.52605978889950
CZ-2C R/B               
1 28222U 04012C   20218.48308223  .00000288  00000-0  21261-4 0  9990
2 28222  97.6806 181.1677 0045936 220.9272 251.5954 15.10430890893390
SL-16 R/B               
1 28353U 04021B   20218.36489275 -.00000270  00000-0 -11636-3 0  9996
2 28353  70.9991 196.7440 0007564 263.9964  96.0297 14.14232861834066
CZ-4B R/B               
1 28415U 04035C   20218.37567594 -.00000035  00000-0  20856-5 0  9996
2 28415  97.6102 259.4081 0051465 183.8884 176.1951 15.06886750871009
CZ-2C R/B               
1 28480U 04046B   20218.32198111 -.00000010  00000-0  10687-4 0  9993
2 28480  98.0755 249.4742 0143181  80.5244 292.0843 14.25726595817382
ARIANE 5 R/B            
1 28499U 04049H   20218.53682576  .00000045  00000-0  12718-4 0  9996
2 28499  98.0579 320.4744 0093454 114.3408  15.3227 14.80038857843359
CZ-2D R/B               
1 28738U 05024B   20218.55058513  .00000357  00000-0  24364-4 0  9992
2 28738  97.3807 239.4921 0012484  22.1180 338.0587 15.12072338828821
SUZAKU (ASTRO-EII)      
1 28773U 05025A   20218.61430212  .00000910  00000-0  39809-4 0  9994
2 28773  31.3829  56.9909 0004601 338.9621  21.0837 15.17620089831435
ALOS (DAICHI)           
1 28931U 06002A   20218.46336045  .00000092  00000-0  26675-4 0  9996
2 28931  97.8480 201.8003 0001115  26.3055 333.8202 14.62727666774864
H-2A R/B                
1 28932U 06002B   20218.47610399  .00000372  00000-0  40186-4 0  9999
2 28932  98.3239 211.2750 0089106 160.3517 316.1809 14.92254102788455
AKARI (ASTRO-F)         
1 28939U 06005A   20218.48947455  .00002310  00000-0  62952-4 0  9995
2 28939  98.2350 198.2454 0093523 151.8135 208.8214 15.34455813788411
RESURS-DK 1             
1 29228U 06021A   20218.27905493  .00000048  00000-0  10985-4 0  9993
2 29228  69.9355  63.7039 0004350 346.5065  13.5979 15.02555855780089
GENESIS 1               
1 29252U 06029A   20218.48532293  .00000273  00000-0  23159-4 0  9992
2 29252  64.5240 141.2115 0002503 131.9126 228.2211 15.18183913775547
CZ-4B R/B               
1 29507U 06046C   20218.30022765 -.00000602  00000-0 -41596-4 0  9996
2 29507  97.7527 240.0948 0046073   1.6395 358.4971 15.00642624752699
CZ-2C R/B               
1 31114U 07010B   20218.44092365 -.00000035  00000-0  18333-5 0  9996
2 31114  98.2565  68.0154 0060710 123.7336 236.9647 14.19325892689970
COSMO-SKYMED 1          
1 31598U 07023A   20218.55799746 -.00002643  00000-0 -32568-3 0  9997
2 31598  97.8854  41.0040 0001511  95.8376 264.2947 14.82138590712100
GENESIS 2               
1 31789U 07028A   20218.33533521  .00000199  00000-0  20237-4 0  9990
2 31789  64.5017 183.3835 0039252 236.1651 123.5734 15.17302092722588
COSMOS 2428             
1 31792U 07029A   20218.57789454 -.00000349  00000-0 -16347-3 0  9994
2 31792  70.9072 169.8040 0010165 345.2954  14.7870 14.12306895675714
SL-16 R/B               
1 31793U 07029B   20218.23184656  .00000107  00000-0  80856-4 0  9998
2 31793  70.9756 143.8968 0002306 257.8548 254.1617 14.14429029676627
KORONAS-FOTON           
1 33504U 09003A   20218.55381478  .00000746  00000-0  37291-4 0  9994
2 33504  82.4431 173.9696 0020683 107.6608 252.6885 15.15674625634828
H-2A R/B                
1 38341U 12025E   20218.39832495  .00000106  00000-0  19925-4 0  9992
2 38341  98.5059  16.5974 0056741  75.1049 285.6437 14.84054375444624
CUSAT 2 & FALCON 9 R/B  
1 39271U 13055G   20218.45227915  .00008995  00000-0  21464-3 0  9995
2 39271  80.9639 214.2968 0587057  22.9761 339.6563 14.48533335357829
SL-4 R/B                
1 39679U 14021B   20218.47130416 -.00000125  00000-0  12581-4 0  9991
2 39679  51.6140 239.9334 0172275 115.5716 246.3173 15.06453933346419
ALOS-2                  
1 39766U 14029A   20218.54494941 -.00000206  00000-0 -20694-4 0  9995
2 39766  97.9227 314.4397 0001549  88.9045 271.2329 14.79470114334951
CZ-2C R/B               
1 40306U 14071B   20218.59581119  .00003232  00000-0  69654-4 0  9992
2 40306  97.3274 165.5556 0015157 354.1404   5.9665 15.45238671321436
SL-27 R/B               
1 40354U 14084B   20218.56620347  .00000720  00000-0  18791-4 0  9998
2 40354  74.7379 286.4864 0036091  90.4142 270.1206 15.40288779315695
YAOGAN 29               
1 41038U 15069A   20218.57521701 -.00000017  00000-0  46435-5 0  9994
2 41038  98.0128 206.4723 0002338  90.1892 269.9576 14.80454332253542
ASTRO-H (HITOMI)        
1 41337U 16012A   20218.55121206  .00000217  00000-0  10615-4 0  9990
2 41337  31.0065  58.4561 0012477 197.0890 162.9326 14.98696485244873
SHENZHOU-11 MODULE      
1 41868U 16061G   20218.28665843  .00097323  12501-4  15180-3 0  9991
2 41868  42.7840 190.0328 0013211 155.7431 339.4799 16.03372210213893
HXMT (HUIYAN)           
1 42758U 17034A   20218.46342771 -.00000003  00000-0  13524-4 0  9991
2 42758  43.0175 127.1265 0011713 331.4402 197.8814 15.08859283173279
CZ-2C R/B               
1 43521U 18054D   20218.43793163  .00000292  00000-0  17899-4 0  9993
2 43521  35.1527 238.0724 0082892 190.1724 169.7312 15.11032587116560
AEOLUS                  
1 43600U 18066A   20218.48458780  .00026619  00000-0  10462-3 0  9991
2 43600  96.7177 224.1430 0004968  87.1556 273.0285 15.86873704113143
SAOCOM 1A               
1 43641U 18076A   20218.56621784  .00000027  00000-0  99267-5 0  9999
2 43641  97.8896  43.9771 0001448  81.8925 278.2464 14.82153537 98872
CREW DRAGON DEMO-1 DEB  
1 44064U 19011B   20218.55825417  .00013336  00000-0  13327-3 0  9995
2 44064  51.6341  63.4634 0002755 233.0350 127.0393 15.65956315 80606
